[{"OBJECT_NAME":"ITAMSAT (IO-26)","OBJECT_ID":"1993-061D","EPOCH":"2026-03-09T18:51:40.558176","MEAN_MOTION":14.31337175,"ECCENTRICITY":0.00091856,"INCLINATION":98.6929,"RA_OF_ASC_NODE":136.1036,"ARG_OF_PERICENTER":22.8845,"MEAN_ANOMALY":337.2746,"EPHEMERIS_TYPE":0,"CLASSIFICATION_TYPE":"U","NORAD_CAT_ID":22826,"ELEMENT_SET_NO":999,"REV_AT_EPOCH":69309,"BSTAR":7.3937292e-5,"MEAN_MOTION_DOT":1.51e-6,"MEAN_MOTION_DDOT":0},{"OBJECT_NAME":"YAOGAN-2 DEB","OBJECT_ID":"2007-019C","EPOCH":"2026-03-09T11:43:36.585696","MEAN_MOTION":14.36653484,"ECCENTRICITY":0.01961542,"INCLINATION":97.9194,"RA_OF_ASC_NODE":322.83,"ARG_OF_PERICENTER":319.8929,"MEAN_ANOMALY":38.7915,"EPHEMERIS_TYPE":0,"CLASSIFICATION_TYPE":"U","NORAD_CAT_ID":38263,"ELEMENT_SET_NO":999,"REV_AT_EPOCH":97367,"BSTAR":0.00086105179,"MEAN_MOTION_DOT":3.115e-5,"MEAN_MOTION_DDOT":0}]
